[
    {
        "Altitude(m)": 612513.9271641497,
        "Argument of Periapsis(deg)": 0.0,
        "Eccentricity": 0.0,
        "Inclination(deg)": 60.0,
        "Latitude(deg)": -28.13594887519391,
        "Longitude(deg)": 7.913173309544922,
        "Mean Anomaly(deg)": -147.27270000000004,
        "RAAN(deg)": 270.0,
        "Satellite Name": "Test1 1201",
        "Satellite Number": 1201,
        "Semi-Major Axis(m)": 6980739.136638005,
        "Time(s)": 0
    },
    {
        "Altitude(m)": 612708.2948712558,
        "Argument of Periapsis(deg)": 0.00010418945913296404,
        "Eccentricity": 0.0,
        "Inclination(deg)": 60.0,
        "Latitude(deg)": -28.647687348228246,
        "Longitude(deg)": 8.270404897247847,
        "Mean Anomaly(deg)": -146.65259385453817,
        "RAAN(deg)": 269.99957995086027,
        "Satellite Name": "Test1 1201",
        "Satellite Number": 1201,
        "Semi-Major Axis(m)": 6980739.136638005,
        "Time(s)": 10
    }
]